COSMOS 1933             
1 18958U 88020A   25358.95450886  .00004458  00000+0  22277-3 0  9990
2 18958  82.5141 324.8087 0006348  95.5972 264.5986 15.17208157 38899
SL-3 R/B                
1 19046U 88032B   25359.24761618  .00005325  00000+0  25622-3 0  9994
2 19046  97.5098 337.8827 0027927 130.6267 229.7403 15.18862847 40809
SL-16 R/B               
1 19120U 88039B   25359.00766167 -.00000029  00000+0  89696-5 0  9992
2 19120  71.0129 226.4596 0019540  95.2869 265.0487 14.19599568947781
COSMOS 1953             
1 19210U 88050A   25351.75027580  .00004793  00000+0  17925-3 0  9993
2 19210  82.5093 240.5536 0013540  56.0210 304.2313 15.26995692 25270
SL-8 R/B                
1 19257U 88053B   25359.13376403  .00000262  00000+0  93555-4 0  9999
2 19257  74.0468 249.8778 0018956  89.3338  18.9786 14.38866556965879
COSMOS 1975             
1 19573U 88093A   25359.03854929  .00008177  00000+0  31003-3 0  9999
2 19573  82.5191 192.5146 0013043  74.5134 285.7544 15.26639190  8012
SL-14 R/B               
1 19574U 88093B   25359.30300907  .00000576  00000+0  63702-4 0  9999
2 19574  82.5316 111.8780 0019262 285.3587 133.4802 14.85562377989990
SL-16 R/B               
1 19650U 88102B   25359.31414128  .00000115  00000+0  82203-4 0  9993
2 19650  71.0007 307.9851 0012308 130.3288 229.8913 14.16142214916365
INTERCOSMOS 24          
1 20261U 89080A   25358.89932006  .00000759  00000+0  21413-3 0  9990
2 20261  82.6053 153.0475 1189008 106.3253 267.1717 12.59459050657389
SL-14 R/B               
1 20262U 89080C   25358.98507404  .00000324  00000+0  94280-4 0  9992
2 20262  82.5915 221.1596 1230433 355.6066   3.4952 12.50422684650814
DELTA 1 R/B             
1 20323U 89089B   25359.19398083  .00000364  00000+0  98804-4 0  9994
2 20323  97.0743 213.4571 0069121 359.2936   0.8153 14.50581996884938
ARIANE 40 R/B           
1 20443U 90005H   25359.17869836  .00000294  00000+0  10717-3 0  9992
2 20443  98.3227  57.0043 0011171  72.0637 288.1769 14.39807376882086
